{
"type": "FeatureCollection",
"name": "luminarias_pieres",
"crs": { "type": "name", "properties": { "name": "urn:ogc:def:crs:OGC:1.3:CRS84" } },
"features": [
{"type":"Feature","properties":{"id":null},"geometry":{"type":"Point","coordinates":[-58.676393227277245,-38.382329977753166]}},
{"type":"Feature","properties":{"id":null},"geometry":{"type":"Point","coordinates":[-58.676263346182942,-38.382723500738621]}},
{"type":"Feature","properties":{"id":null},"geometry":{"type":"Point","coordinates":[-58.676144272407313,-38.38307881006763]}},
{"type":"Feature","properties":{"id":null},"geometry":{"type":"Point","coordinates":[-58.676119951257697,-38.383449451609032]}},
{"type":"Feature","properties":{"id":null},"geometry":{"type":"Point","coordinates":[-58.675900715070355,-38.38366518811052]}},
{"type":"Feature","properties":{"id":null},"geometry":{"type":"Point","coordinates":[-58.67626680214768,-38.383844346217423]}},
{"type":"Feature","properties":{"id":null},"geometry":{"type":"Point","coordinates":[-58.67610075146964,-38.384125338832725]}},
{"type":"Feature","properties":{"id":null},"geometry":{"type":"Point","coordinates":[-58.676580510257054,-38.384181281347026]}},
{"type":"Feature","properties":{"id":null},"geometry":{"type":"Point","coordinates":[-58.676757112237226,-38.384763879342181]}},
{"type":"Feature","properties":{"id":null},"geometry":{"type":"Point","coordinates":[-58.676489640090736,-38.385015286224977]}},
{"type":"Feature","properties":{"id":null},"geometry":{"type":"Point","coordinates":[-58.676503048304994,-38.384502926982748]}},
{"type":"Feature","properties":{"id":null},"geometry":{"type":"Point","coordinates":[-58.676610475263345,-38.385302235045486]}},
{"type":"Feature","properties":{"id":null},"geometry":{"type":"Point","coordinates":[-58.676308558944953,-38.385501852680065]}},
{"type":"Feature","properties":{"id":null},"geometry":{"type":"Point","coordinates":[-58.675829950143104,-38.385799020194128]}},
{"type":"Feature","properties":{"id":null},"geometry":{"type":"Point","coordinates":[-58.676237692656578,-38.385813362828756]}},
{"type":"Feature","properties":{"id":null},"geometry":{"type":"Point","coordinates":[-58.675371420001973,-38.385884774755965]}},
{"type":"Feature","properties":{"id":null},"geometry":{"type":"Point","coordinates":[-58.675413973337569,-38.385766589532537]}},
{"type":"Feature","properties":{"id":null},"geometry":{"type":"Point","coordinates":[-58.674417259759409,-38.385671936071908]}},
{"type":"Feature","properties":{"id":null},"geometry":{"type":"Point","coordinates":[-58.674459813095005,-38.38555375084848]}},
{"type":"Feature","properties":{"id":null},"geometry":{"type":"Point","coordinates":[-58.674882918920751,-38.385771165905204]}},
{"type":"Feature","properties":{"id":null},"geometry":{"type":"Point","coordinates":[-58.674925472256348,-38.385652980681776]}},
{"type":"Feature","properties":{"id":null},"geometry":{"type":"Point","coordinates":[-58.673961566510272,-38.385581890683092]}},
{"type":"Feature","properties":{"id":null},"geometry":{"type":"Point","coordinates":[-58.674004119845868,-38.385463705459664]}},
{"type":"Feature","properties":{"id":null},"geometry":{"type":"Point","coordinates":[-58.673579812050619,-38.385519944503514]}},
{"type":"Feature","properties":{"id":null},"geometry":{"type":"Point","coordinates":[-58.673622365386215,-38.385401759280086]}},
{"type":"Feature","properties":{"id":null},"geometry":{"type":"Point","coordinates":[-58.673099003010989,-38.385438221043643]}},
{"type":"Feature","properties":{"id":null},"geometry":{"type":"Point","coordinates":[-58.673141556346586,-38.385320035820214]}},
{"type":"Feature","properties":{"id":null},"geometry":{"type":"Point","coordinates":[-58.672671978359709,-38.385354565449276]}},
{"type":"Feature","properties":{"id":null},"geometry":{"type":"Point","coordinates":[-58.672714531695306,-38.385236380225848]}},
{"type":"Feature","properties":{"id":null},"geometry":{"type":"Point","coordinates":[-58.672160732585567,-38.385259083349169]}},
{"type":"Feature","properties":{"id":null},"geometry":{"type":"Point","coordinates":[-58.672203285921164,-38.385140898125741]}},
{"type":"Feature","properties":{"id":null},"geometry":{"type":"Point","coordinates":[-58.675730171767142,-38.384085623068266]}},
{"type":"Feature","properties":{"id":null},"geometry":{"type":"Point","coordinates":[-58.67568013215616,-38.384245084142343]}},
{"type":"Feature","properties":{"id":null},"geometry":{"type":"Point","coordinates":[-58.675544720266956,-38.384256664025123]}},
{"type":"Feature","properties":{"id":null},"geometry":{"type":"Point","coordinates":[-58.675413648185064,-38.384645279182273]}},
{"type":"Feature","properties":{"id":null},"geometry":{"type":"Point","coordinates":[-58.675256843712546,-38.385031636610712]}},
{"type":"Feature","properties":{"id":null},"geometry":{"type":"Point","coordinates":[-58.675109023492404,-38.385425801736794]}},
{"type":"Feature","properties":{"id":null},"geometry":{"type":"Point","coordinates":[-58.674883421474775,-38.386027793066013]}},
{"type":"Feature","properties":{"id":null},"geometry":{"type":"Point","coordinates":[-58.673892312758404,-38.389812304966547]}},
{"type":"Feature","properties":{"id":null},"geometry":{"type":"Point","coordinates":[-58.67372139239415,-38.390319711027743]}},
{"type":"Feature","properties":{"id":null},"geometry":{"type":"Point","coordinates":[-58.673615425473685,-38.39063035731813]}},
{"type":"Feature","properties":{"id":null},"geometry":{"type":"Point","coordinates":[-58.673483644432345,-38.391053637670765]}},
{"type":"Feature","properties":{"id":null},"geometry":{"type":"Point","coordinates":[-58.673392786714864,-38.391330511813486]}},
{"type":"Feature","properties":{"id":null},"geometry":{"type":"Point","coordinates":[-58.672566440359525,-38.393960903627317]}},
{"type":"Feature","properties":{"id":null},"geometry":{"type":"Point","coordinates":[-58.672261833165685,-38.394192419973187]}},
{"type":"Feature","properties":{"id":null},"geometry":{"type":"Point","coordinates":[-58.672367787752876,-38.394455161164309]}},
{"type":"Feature","properties":{"id":null},"geometry":{"type":"Point","coordinates":[-58.672049160758313,-38.394692835894034]}},
{"type":"Feature","properties":{"id":null},"geometry":{"type":"Point","coordinates":[-58.672139037307041,-38.395065740567411]}},
{"type":"Feature","properties":{"id":null},"geometry":{"type":"Point","coordinates":[-58.671770854806581,-38.396309145486676]}},
{"type":"Feature","properties":{"id":null},"geometry":{"type":"Point","coordinates":[-58.671677896793973,-38.396534481000408]}},
{"type":"Feature","properties":{"id":null},"geometry":{"type":"Point","coordinates":[-58.671557980467149,-38.396883802997912]}},
{"type":"Feature","properties":{"id":null},"geometry":{"type":"Point","coordinates":[-58.672927809890503,-38.394657350787121]}},
{"type":"Feature","properties":{"id":null},"geometry":{"type":"Point","coordinates":[-58.673458741097569,-38.39475727964097]}},
{"type":"Feature","properties":{"id":null},"geometry":{"type":"Point","coordinates":[-58.672242087705705,-38.395796728409572]}},
{"type":"Feature","properties":{"id":null},"geometry":{"type":"Point","coordinates":[-58.673258676337319,-38.395501329640553]}}
]
}
