{
"type": "FeatureCollection",
"name": "zonas",
"crs": { "type": "name", "properties": { "name": "urn:ogc:def:crs:OGC:1.3:CRS84" } },
"features": [
{"type":"Feature","properties":{"id":1,"nombre":"zona_avenidas"},"geometry":{"type":"MultiPolygon","coordinates":[[[[-58.765902477823062,-38.149494168276561],[-58.765788291981359,-38.149562176020474],[-58.771685654862353,-38.154384848627032],[-58.773035734519624,-38.155519990229408],[-58.773962654881331,-38.156299140678378],[-58.774728371701869,-38.156930521214612],[-58.775574690292991,-38.157655937149862],[-58.776991938092408,-38.158831379637519],[-58.777710637213438,-38.159409025660025],[-58.78044438059905,-38.161612140722632],[-58.782795265574372,-38.163512999145546],[-58.781102628392148,-38.164775760218014],[-58.780061522188781,-38.165595211552279],[-58.779685380592724,-38.165736264650796],[-58.779047283242278,-38.166240025716938],[-58.778415902706044,-38.166716919526223],[-58.77718000889044,-38.167610255816854],[-58.775769477905236,-38.168678229277077],[-58.77440596461954,-38.1696991850378],[-58.774211177007295,-38.169994724863272],[-58.770664699101644,-38.172674733735157],[-58.769966150423251,-38.173379999227755],[-58.769207150416932,-38.173910627550761],[-58.76852875218119,-38.174300202775242],[-58.767897371644956,-38.174535291272775],[-58.766574159244549,-38.174609176229147],[-58.766063681364194,-38.174689777999724],[-58.765929345079883,-38.174602459414928],[-58.765848743309306,-38.174636043486004],[-58.765781575167154,-38.174830831098248],[-58.766184584020067,-38.174850981540892],[-58.767346592879306,-38.174850981540892],[-58.768320530940514,-38.174609176229147],[-58.769005645990475,-38.174320353217887],[-58.769898982281099,-38.17368225586744],[-58.771873725660384,-38.172265008068024],[-58.773438743372537,-38.171123149651436],[-58.773432026558325,-38.170961946110268],[-58.774016389395051,-38.170713423984303],[-58.775097796483706,-38.169719335480444],[-58.775641858435144,-38.169383494769683],[-58.776306823042439,-38.168879733703541],[-58.776857601808089,-38.168456574407976],[-58.777388230131095,-38.167993114227123],[-58.777596451371771,-38.167899078828107],[-58.77830171686437,-38.167328149619813],[-58.779127885012848,-38.166857972624747],[-58.77924878766872,-38.166569149613487],[-58.779416708024101,-38.166555715985062],[-58.779544327494193,-38.166468397400259],[-58.780041371746123,-38.166105689432634],[-58.780195858473071,-38.165931052263041],[-58.780780221309797,-38.165541477038552],[-58.781048893878413,-38.165339972612095],[-58.781069044321058,-38.165219069956223],[-58.781539221316123,-38.16498398145869],[-58.78301692044348,-38.163694353129358],[-58.785972318698207,-38.166112406246846],[-58.787429867382919,-38.167267698291873],[-58.792534646186503,-38.171472423990629],[-58.79273615061296,-38.171313739254799],[-58.789424761204856,-38.16856656224077],[-58.785441690375208,-38.165295473717947],[-58.783245292126821,-38.163622986978346],[-58.783641584165522,-38.163320730338661],[-58.785522292145792,-38.161836314397092],[-58.787013424901581,-38.160687739166285],[-58.788269469159829,-38.159720517919283],[-58.791836097508131,-38.156959907276814],[-58.79534227452848,-38.154276539997838],[-58.799573867484092,-38.151018885103433],[-58.79950669934194,-38.1509584337755],[-58.793972044428585,-38.155075840889445],[-58.788719495712272,-38.159018610833797],[-58.785119283292893,-38.16168518607725],[-58.783084088585674,-38.163290504674698],[-58.781686991228895,-38.162155363072316],[-58.778657708017811,-38.159730593140615],[-58.774990327456287,-38.156694593115319],[-58.774540300903872,-38.156479655060423],[-58.774452982319069,-38.156318451519262],[-58.774096991165663,-38.156036345322221],[-58.773955938067139,-38.156049778950646],[-58.769133265460603,-38.152127159448945],[-58.765902477823062,-38.149494168276561]]]]}},
{"type":"Feature","properties":{"id":2,"nombre":"zona_este"},"geometry":{"type":"MultiPolygon","coordinates":[[[[-58.782728097432233,-38.163504183326893],[-58.776156534324393,-38.158166834831079],[-58.775315253343933,-38.157461569338487],[-58.774443746699504,-38.156726078181919],[-58.773463931425852,-38.155988068220012],[-58.769877152634912,-38.153025953151086],[-58.76425517913674,-38.157277696549343],[-58.765887364991045,-38.158788979747776],[-58.770300311930463,-38.162536962079884],[-58.766733683582167,-38.165196820509124],[-58.766391126057179,-38.168637508590891],[-58.767302933586905,-38.172027820566036],[-58.769519482277936,-38.173649931199016],[-58.770506853967582,-38.172712935615991],[-58.771504300878547,-38.171957294016785],[-58.773982805323975,-38.169977513026836],[-58.774476491168791,-38.16959969222723],[-58.777841615090637,-38.167075849285851],[-58.779504026608912,-38.165771108124538],[-58.780032975728361,-38.1655796789194],[-58.780899444762127,-38.164874413426801],[-58.782728097432233,-38.163504183326893]]]]}},
{"type":"Feature","properties":{"id":3,"nombre":"zona_acceso"},"geometry":{"type":"MultiPolygon","coordinates":[[[[-58.765439017642166,-38.149386279448187],[-58.765539769855401,-38.149134398915123],[-58.761983216728424,-38.146202509510168],[-58.75470890693331,-38.140268204150992],[-58.754305898080396,-38.140117075831149],[-58.754054017547325,-38.138202783779803],[-58.753741685686315,-38.138202783779803],[-58.753842437899543,-38.13906925281357],[-58.753328601612075,-38.139159929805473],[-58.751041526371765,-38.140639727937291],[-58.73517179338554,-38.152487873362304],[-58.735338034537371,-38.152790130001996],[-58.741278636909897,-38.148247779438712],[-58.752210252045231,-38.140227903265696],[-58.753338676833394,-38.139472261666484],[-58.753902889227476,-38.139371509453248],[-58.753912964448801,-38.139633465207645],[-58.754144694539228,-38.140449558134797],[-58.754346198965685,-38.140419332470834],[-58.754517477728172,-38.140399182028183],[-58.765439017642166,-38.149386279448187]]]]}},
{"type":"Feature","properties":{"id":4,"nombre":"zona_norte"},"geometry":{"type":"MultiPolygon","coordinates":[[[[-58.800251426118834,-38.150092489492735],[-58.799707364167389,-38.1496391045332],[-58.799707364167389,-38.149397299221448],[-58.799072625224042,-38.148913688597943],[-58.794387647308838,-38.144712321306251],[-58.794992160588222,-38.144198485018777],[-58.793964488013273,-38.143201038107797],[-58.792543881806729,-38.144440290330529],[-58.791637111887653,-38.143775325723205],[-58.790004926033326,-38.145256383257689],[-58.789007479122347,-38.144591418650371],[-58.774529386081177,-38.156228299278453],[-58.774582280993123,-38.156470104590213],[-58.774910985088781,-38.156621232910055],[-58.775507941952164,-38.156987719085677],[-58.775666626688,-38.157252193645405],[-58.775742190847929,-38.157308866765348],[-58.776784976254859,-38.158162741772472],[-58.778806317532784,-38.159825153290775],[-58.780106021083448,-38.16087171690571],[-58.782119805945392,-38.162485011720051],[-58.783079470776407,-38.163259544359256],[-58.785040360726406,-38.161702922664851],[-58.788962140626374,-38.158782367883838],[-58.800251426118834,-38.150092489492735]]]]}},
{"type":"Feature","properties":{"id":5,"nombre":"zona_oeste"},"geometry":{"type":"MultiPolygon","coordinates":[[[[-58.798034647454656,-38.152474176600087],[-58.789156899158655,-38.159079852950754],[-58.788770910102308,-38.159369344743013],[-58.786011965597282,-38.161496670792197],[-58.784783818599813,-38.162444098475959],[-58.783634623909322,-38.163391526159721],[-58.783345132117063,-38.163637155559215],[-58.786722536360109,-38.166303989039434],[-58.791959706056453,-38.170620048487685],[-58.794009176358465,-38.172261050257042],[-58.794184625929532,-38.172734764098934],[-58.79472851959985,-38.173173388026605],[-58.795307503184382,-38.17368219178271],[-58.796307565739482,-38.174489259809633],[-58.79771116230804,-38.175594592107373],[-58.800395540745413,-38.177875436531288],[-58.805273038821156,-38.173822551439564],[-58.806378371118889,-38.173103208198178],[-58.806308191290462,-38.172471589742329],[-58.80560639300618,-38.171910151114901],[-58.803922077123907,-38.170366194889489],[-58.802588660383776,-38.169524036948353],[-58.801606142785786,-38.168471339521929],[-58.800904344501504,-38.16769936140922],[-58.799921826903514,-38.167278282438652],[-58.798939309305524,-38.166365944669089],[-58.798518230334956,-38.166085225355381],[-58.800202546217228,-38.164681628786816],[-58.80174650244264,-38.163558751531973],[-58.803009739354344,-38.162365694448695],[-58.804343156094475,-38.16173407599284],[-58.801816682271067,-38.160049760110567],[-58.804413335922902,-38.157944365257727],[-58.804904594721904,-38.157523286287159],[-58.798026971535954,-38.152496656076011],[-58.798034647454656,-38.152474176600087]]]]}},
{"type":"Feature","properties":{"id":6,"nombre":"zona_sur"},"geometry":{"type":"MultiPolygon","coordinates":[[[[-58.76461918008458,-38.177675862644165],[-58.767233378693525,-38.180509373216942],[-58.76885628722593,-38.179149639041157],[-58.772891627360544,-38.183027074561807],[-58.772347733690218,-38.183448153532375],[-58.775821635197403,-38.186413251283462],[-58.779032362347984,-38.18893972510687],[-58.785541541434675,-38.183921867374266],[-58.786997772874557,-38.185044744629117],[-58.787646936287516,-38.184518395915909],[-58.785260822120954,-38.182658630462562],[-58.795998335870436,-38.174412500622275],[-58.79484694806029,-38.173458493579574],[-58.793750388241101,-38.172559314527852],[-58.793943382769278,-38.172366319999675],[-58.792693304575408,-38.17142766479445],[-58.792219590733524,-38.171804881372253],[-58.791676793623019,-38.171399154239133],[-58.791966285415285,-38.171109662446867],[-58.790641641153705,-38.17005696502045],[-58.790479350300465,-38.16978282506566],[-58.790409170472039,-38.169734576433612],[-58.789187602833465,-38.168752058835622],[-58.78676639875269,-38.166787023639621],[-58.785753177479769,-38.165953638177044],[-58.784897860820806,-38.165256226132044],[-58.783033709128183,-38.163738587342287],[-58.782134530076448,-38.164523724172824],[-58.781594750049486,-38.164976230431257],[-58.781328908182338,-38.165109151364831],[-58.781173833759844,-38.165295240671831],[-58.780376308158409,-38.165849077895047],[-58.780247817922621,-38.165919969059615],[-58.780194649549195,-38.166035167202047],[-58.779437829411201,-38.166560594102627],[-58.779299524707447,-38.166587191161042],[-58.779283566472401,-38.16670953762975],[-58.779108025886863,-38.166938272332111],[-58.77852821001342,-38.167236159386341],[-58.777549438263769,-38.167996835256993],[-58.777448369441792,-38.167980877021947],[-58.777373897678238,-38.168108542902331],[-58.774509394487012,-38.170294821103987],[-58.774062563905652,-38.170720374038616],[-58.773615733324291,-38.170909213153358],[-58.773559879501619,-38.171060816386323],[-58.768838901633053,-38.174489177215925],[-58.768711235752662,-38.174467899569194],[-58.768541014578815,-38.174537051921071],[-58.768232488701209,-38.174760467211755],[-58.768009073410525,-38.174861536033724],[-58.765062119338218,-38.177138244233994],[-58.764620608168521,-38.177672845108127],[-58.76461918008458,-38.177675862644165]]]]}},
{"type":"Feature","properties":{"id":7,"nombre":"zona_ruta_227"},"geometry":{"type":"MultiPolygon","coordinates":[[[[-58.76615791814487,-38.173183261647807],[-58.766136640498118,-38.173161984001077],[-58.765891947560711,-38.173172622824438],[-58.765849392267242,-38.173225816941269],[-58.765817475797149,-38.173396038115122],[-58.765774920503688,-38.17372584163946],[-58.765679171093396,-38.174013089870336],[-58.765519588742904,-38.174310976924573],[-58.765434478155981,-38.17468333574238],[-58.765360006392434,-38.175023778090079],[-58.765264256982142,-38.175438692201347],[-58.765189785218581,-38.175672746315392],[-58.765040841691459,-38.175981272192999],[-58.764817426400782,-38.176385547480898],[-58.76472167699049,-38.176598323948213],[-58.764604649933467,-38.17689621100245],[-58.764445067582976,-38.177119626293134],[-58.7641897358222,-38.177428152170741],[-58.764008875824985,-38.177672845108148],[-58.763774821710939,-38.177938815692293],[-58.763466295833332,-38.178087759219416],[-58.763210964072542,-38.17827925804],[-58.756593615939053,-38.183130561494778],[-58.755423345368818,-38.182002846218005],[-58.755082903021119,-38.18230073327225],[-58.756380839471738,-38.183428448549016],[-58.751189093669254,-38.187471201427996],[-58.741571597346628,-38.194577935436314],[-58.737486289174186,-38.191194789606008],[-58.737103291533018,-38.191471399013516],[-58.741039656178337,-38.194875822490552],[-58.740677936183907,-38.195322653071912],[-58.739933218548302,-38.194599213083045],[-58.73944383267348,-38.194577935436314],[-58.73848633857056,-38.195535429539227],[-58.739273611499627,-38.196429090701947],[-58.738167173869591,-38.197173808337553],[-58.738443783277098,-38.19753552833199],[-58.748454916064269,-38.190024519035774],[-58.755327595958548,-38.184811495586565],[-58.755593566542693,-38.184556163825789],[-58.755859537126831,-38.184364665005205],[-58.756104230064246,-38.184194443831352],[-58.756359561825022,-38.18406677795096],[-58.756508505352144,-38.18406677795096],[-58.756604254762436,-38.183939112070576],[-58.756604254762436,-38.183885917953745],[-58.756827670053113,-38.183694419133161],[-58.758083051210271,-38.184779579116466],[-58.758274550030855,-38.184641274412712],[-58.756944697110136,-38.1836199473696],[-58.763359907599678,-38.178779282738191],[-58.763391824069771,-38.178651616857799],[-58.763689711124016,-38.178428201567115],[-58.763838654651138,-38.178406923920384],[-58.764030153471722,-38.178300535686731],[-58.764242929939037,-38.178130314512877],[-58.764370595819422,-38.177906899222194],[-58.764434428759614,-38.177672845108148],[-58.764774871107321,-38.17732176393708],[-58.765040841691466,-38.176906849825812],[-58.765285534628873,-38.176438741597721],[-58.765530227566288,-38.175885522782707],[-58.765764281680333,-38.175225915734032],[-58.765955780500917,-38.175013139266717],[-58.765753642856971,-38.174885473386325],[-58.765785559327064,-38.174576947508719],[-58.766168556968232,-38.174598225155449],[-58.766221751085062,-38.174523753391888],[-58.766008974617748,-38.174279060454481],[-58.76615791814487,-38.173183261647807]]]]}},
{"type":"Feature","properties":{"id":8,"nombre":"zona_tamangueyu"},"geometry":{"type":"MultiPolygon","coordinates":[[[[-58.738220367986379,-38.197434459509992],[-58.737664489465516,-38.197889269208893],[-58.737504907115039,-38.198633986844492],[-58.735281393031592,-38.204900253806905],[-58.735685668319491,-38.204964086747104],[-58.736515496542019,-38.20426192440496],[-58.737366602411278,-38.205091752627489],[-58.738409207101121,-38.204219369111499],[-58.742962623501661,-38.207847207879212],[-58.744356309362573,-38.206740770249169],[-58.747635726665045,-38.209424413443188],[-58.747816586662267,-38.209259511681019],[-58.744608981417485,-38.206652999956411],[-58.748694289589928,-38.203525185886889],[-58.748587901356267,-38.203248576479375],[-58.744087679072578,-38.199897347119169],[-58.742247162630306,-38.201333588273549],[-58.740390687952996,-38.199828194767285],[-58.73808738269431,-38.197950442443229],[-58.738018230342433,-38.197854693032937],[-58.738129937987772,-38.197753624210968],[-58.738342714455086,-38.197594041860476],[-58.738220367986379,-38.197434459509992]]]]}},
{"type":"Feature","properties":{"id":9,"nombre":"zona_pieres"},"geometry":{"type":"MultiPolygon","coordinates":[[[[-58.671501646953999,-38.397186347319256],[-58.671650590481121,-38.397228902612717],[-58.672012310475552,-38.396079909689213],[-58.672437863410181,-38.396165020276143],[-58.672565529290573,-38.395718189694783],[-58.67335280221964,-38.395760744988245],[-58.673693244567339,-38.394696862651671],[-58.672586806937304,-38.394505363831087],[-58.675246512778735,-38.386121971018881],[-58.67554439983298,-38.386121971018881],[-58.675948675120878,-38.386079415725419],[-58.676310395115308,-38.385951749845027],[-58.676544449229354,-38.385887916904835],[-58.676714670403207,-38.385568752203859],[-58.676842336283599,-38.385313420443083],[-58.676927446870522,-38.384951700448646],[-58.676927446870522,-38.384568702807485],[-58.676842336283599,-38.384185705166317],[-58.676565726876085,-38.383930373405541],[-58.676246562175116,-38.38348354282418],[-58.676672115109746,-38.382270716960484],[-58.676097618647994,-38.382036662846438],[-58.675459289246049,-38.383930373405541],[-58.674927348077766,-38.385398531030013],[-58.672033588122282,-38.38480275692153],[-58.671842089301698,-38.385398531030013],[-58.67467201631699,-38.38601558278522],[-58.674459239849675,-38.386866688654486],[-58.670948428138978,-38.397037403792133],[-58.671501646953999,-38.397186347319256]]]]}}
]
}
